{
  "type": "FeatureCollection",
  "features": [
    {
      "type": "Feature",
      "properties": {
        "norad_id": 58701,
        "name": "TIANMU-1 16",
        "group": "weather",
        "lat": 62.147186956408234,
        "lon": 144.20790455524792,
        "alt_km": 487.06100778734253,
        "timestamp": "2025-12-03T15:48:02.748741+00:00",
        "meta_object_name": "TIANMU-1 16",
        "meta_object_id": "2024-004B",
        "meta_epoch": "2025-12-02T23:46:09.262272",
        "meta_mean_motion": 15.24215807,
        "meta_eccentricity": 0.00050547,
        "meta_inclination": 97.4572,
        "meta_ra_of_asc_node": 157.8955,
        "meta_arg_of_pericenter": 336.3217,
        "meta_mean_anomaly": 23.7787,
        "meta_ephemeris_type": 0,
        "meta_classification_type": "U",
        "meta_norad_cat_id": 58701,
        "meta_element_set_no": 999,
        "meta_rev_at_epoch": 10586,
        "meta_bstar": 6.5908855e-05,
        "meta_mean_motion_dot": 1.535e-05,
        "meta_mean_motion_ddot": 0,
        "tle_line1": "1 58701U 24004B   25336.99038498  .00001535  00000+0  65909-4 0  9996",
        "tle_line2": "2 58701  97.4572 157.8955 0005054 336.3217  23.7787 15.24215807105865"
      },
      "geometry": {
        "type": "Point",
        "coordinates": [
          144.20790455524792,
          62.147186956408234
        ]
      }
    },
    {
      "type": "Feature",
      "properties": {
        "norad_id": 58702,
        "name": "TIANMU-1 17",
        "group": "weather",
        "lat": 33.425666098648385,
        "lon": -16.073435536847466,
        "alt_km": 493.8566735903869,
        "timestamp": "2025-12-03T15:48:02.748750+00:00",
        "meta_object_name": "TIANMU-1 17",
        "meta_object_id": "2024-004C",
        "meta_epoch": "2025-12-03T07:17:02.438880",
        "meta_mean_motion": 15.24274448,
        "meta_eccentricity": 0.00043259,
        "meta_inclination": 97.4598,
        "meta_ra_of_asc_node": 158.6121,
        "meta_arg_of_pericenter": 339.4037,
        "meta_mean_anomaly": 20.7025,
        "meta_ephemeris_type": 0,
        "meta_classification_type": "U",
        "meta_norad_cat_id": 58702,
        "meta_element_set_no": 999,
        "meta_rev_at_epoch": 10590,
        "meta_bstar": 0.00037316144,
        "meta_mean_motion_dot": 9.046e-05,
        "meta_mean_motion_ddot": 0,
        "tle_line1": "1 58702U 24004C   25337.30350045  .00009046  00000+0  37316-3 0  9993",
        "tle_line2": "2 58702  97.4598 158.6121 0004325 339.4037  20.7025 15.24274448105905"
      },
      "geometry": {
        "type": "Point",
        "coordinates": [
          -16.073435536847466,
          33.425666098648385
        ]
      }
    },
    {
      "type": "Feature",
      "properties": {
        "norad_id": 58703,
        "name": "TIANMU-1 18",
        "group": "weather",
        "lat": -57.25964692428415,
        "lon": -32.602570308611405,
        "alt_km": 500.6090783280388,
        "timestamp": "2025-12-03T15:48:02.748761+00:00",
        "meta_object_name": "TIANMU-1 18",
        "meta_object_id": "2024-004D",
        "meta_epoch": "2025-12-03T08:27:27.041184",
        "meta_mean_motion": 15.24267672,
        "meta_eccentricity": 0.00036858,
        "meta_inclination": 97.4615,
        "meta_ra_of_asc_node": 158.854,
        "meta_arg_of_pericenter": 340.7716,
        "meta_mean_anomaly": 19.3381,
        "meta_ephemeris_type": 0,
        "meta_classification_type": "U",
        "meta_norad_cat_id": 58703,
        "meta_element_set_no": 999,
        "meta_rev_at_epoch": 10591,
        "meta_bstar": 0.00036127005,
        "meta_mean_motion_dot": 8.753e-05,
        "meta_mean_motion_ddot": 0,
        "tle_line1": "1 58703U 24004D   25337.35239631  .00008753  00000+0  36127-3 0  9999",
        "tle_line2": "2 58703  97.4615 158.8540 0003685 340.7716  19.3381 15.24267672105911"
      },
      "geometry": {
        "type": "Point",
        "coordinates": [
          -32.602570308611405,
          -57.25964692428415
        ]
      }
    },
    {
      "type": "Feature",
      "properties": {
        "norad_id": 58990,
        "name": "INSAT-3DS",
        "group": "weather",
        "lat": 0.03825831754723835,
        "lon": 31.825508044825025,
        "alt_km": 35791.9672174797,
        "timestamp": "2025-12-03T15:48:02.748771+00:00",
        "meta_object_name": "INSAT-3DS",
        "meta_object_id": "2024-033A",
        "meta_epoch": "2025-12-03T03:52:21.156672",
        "meta_mean_motion": 1.00268846,
        "meta_eccentricity": 0.00017557,
        "meta_inclination": 0.0142,
        "meta_ra_of_asc_node": 315.2718,
        "meta_arg_of_pericenter": 303.9272,
        "meta_mean_anomaly": 313.2286,
        "meta_ephemeris_type": 0,
        "meta_classification_type": "U",
        "meta_norad_cat_id": 58990,
        "meta_element_set_no": 999,
        "meta_rev_at_epoch": 4510,
        "meta_bstar": 0,
        "meta_mean_motion_dot": 0,
        "meta_mean_motion_ddot": 0,
        "tle_line1": "1 58990U 24033A   25337.16135598  .00000000  00000+0  00000+0 0  9999",
        "tle_line2": "2 58990   0.0142 315.2718 0001755 303.9272 313.2286  1.00268846 45101"
      },
      "geometry": {
        "type": "Point",
        "coordinates": [
          31.825508044825025,
          0.03825831754723835
        ]
      }
    },
    {
      "type": "Feature",
      "properties": {
        "norad_id": 59051,
        "name": "METEOR-M2 4",
        "group": "weather",
        "lat": 38.39715842748447,
        "lon": 121.65979933176546,
        "alt_km": 816.8294567074581,
        "timestamp": "2025-12-03T15:48:02.748781+00:00",
        "meta_object_name": "METEOR-M2 4",
        "meta_object_id": "2024-039A",
        "meta_epoch": "2025-12-03T08:23:15.675936",
        "meta_mean_motion": 14.22398931,
        "meta_eccentricity": 0.00075403,
        "meta_inclination": 98.6752,
        "meta_ra_of_asc_node": 294.4062,
        "meta_arg_of_pericenter": 24.5928,
        "meta_mean_anomaly": 335.5608,
        "meta_ephemeris_type": 0,
        "meta_classification_type": "U",
        "meta_norad_cat_id": 59051,
        "meta_element_set_no": 999,
        "meta_rev_at_epoch": 9142,
        "meta_bstar": 5.0509119e-05,
        "meta_mean_motion_dot": 6.9e-07,
        "meta_mean_motion_ddot": 0,
        "tle_line1": "1 59051U 24039A   25337.34948699  .00000069  00000+0  50509-4 0  9997",
        "tle_line2": "2 59051  98.6752 294.4062 0007540  24.5928 335.5608 14.22398931 91420"
      },
      "geometry": {
        "type": "Point",
        "coordinates": [
          121.65979933176546,
          38.39715842748447
        ]
      }
    },
    {
      "type": "Feature",
      "properties": {
        "norad_id": 60133,
        "name": "GOES 19",
        "group": "weather",
        "lat": 0.010481246784756293,
        "lon": -125.46184688315424,
        "alt_km": 35783.83959786344,
        "timestamp": "2025-12-03T15:48:02.748792+00:00",
        "meta_object_name": "GOES 19",
        "meta_object_id": "2024-119A",
        "meta_epoch": "2025-12-03T06:32:58.267104",
        "meta_mean_motion": 1.00270953,
        "meta_eccentricity": 0.00013126,
        "meta_inclination": 0.015,
        "meta_ra_of_asc_node": 141.1383,
        "meta_arg_of_pericenter": 156.6473,
        "meta_mean_anomaly": 157.6433,
        "meta_ephemeris_type": 0,
        "meta_classification_type": "U",
        "meta_norad_cat_id": 60133,
        "meta_element_set_no": 999,
        "meta_rev_at_epoch": 500,
        "meta_bstar": 0,
        "meta_mean_motion_dot": -2.3e-06,
        "meta_mean_motion_ddot": 0,
        "tle_line1": "1 60133U 24119A   25337.27289661 -.00000230  00000+0  00000+0 0  9995",
        "tle_line2": "2 60133   0.0150 141.1383 0001312 156.6473 157.6433  1.00270953  5002"
      },
      "geometry": {
        "type": "Point",
        "coordinates": [
          -125.46184688315424,
          0.010481246784756293
        ]
      }
    },
    {
      "type": "Feature",
      "properties": {
        "norad_id": 65815,
        "name": "FENGYUN 3H",
        "group": "weather",
        "lat": 75.72028283782342,
        "lon": 134.21472661016995,
        "alt_km": 818.0957008138303,
        "timestamp": "2025-12-03T15:48:02.748801+00:00",
        "meta_object_name": "FENGYUN 3H",
        "meta_object_id": "2025-219A",
        "meta_epoch": "2025-12-03T06:52:08.606208",
        "meta_mean_motion": 14.1990031,
        "meta_eccentricity": 6.403e-05,
        "meta_inclination": 98.657,
        "meta_ra_of_asc_node": 277.0825,
        "meta_arg_of_pericenter": 70.9457,
        "meta_mean_anomaly": 289.1789,
        "meta_ephemeris_type": 0,
        "meta_classification_type": "U",
        "meta_norad_cat_id": 65815,
        "meta_element_set_no": 999,
        "meta_rev_at_epoch": 958,
        "meta_bstar": 9.2938014e-05,
        "meta_mean_motion_dot": 1.54e-06,
        "meta_mean_motion_ddot": 0,
        "tle_line1": "1 65815U 25219A   25337.28621072  .00000154  00000+0  92938-4 0  9996",
        "tle_line2": "2 65815  98.6570 277.0825 0000640  70.9457 289.1789 14.19900310  9589"
      },
      "geometry": {
        "type": "Point",
        "coordinates": [
          134.21472661016995,
          75.72028283782342
        ]
      }
    }
  ]
}